SL-14 R/B               
1 16496U 86006B   26102.30433937  .00000656  00000+0  66714-4 0  9993
2 16496  82.5276 228.0974 0077013 160.2366 200.1865 14.86876206154204
COSMOS 1743             
1 16719U 86034A   26101.86933875  .00035244  00000+0  40816-3 0  9993
2 16719  82.5305  38.9322 0006650 136.1873 223.9913 15.61634030185420
SL-14 R/B               
1 16792U 86046B   26102.28241829  .00000359  00000+0  38385-4 0  9993
2 16792  82.4829  48.4374 0024519 115.3193 245.0567 14.85625691131397
SL-14 R/B               
1 16882U 86055B   26101.93245455  .00000365  00000+0  39273-4 0  9997
2 16882  82.5169  95.4172 0017847 218.3953 162.4245 14.85674288124301
AJISAI (EGS)            
1 16908U 86061A   26102.29110223 -.00000086  00000+0  78863-4 0  9996
2 16908  50.0119 350.0257 0011390  13.4462  88.6504 12.44515753472188
SL-14 R/B               
1 17567U 87024B   26102.30359200  .00000363  00000+0  38492-4 0  9991
2 17567  82.5276  61.1636 0019093 145.2964 214.9503 14.86166665 93122
COSMOS 1833             
1 17589U 87027A   26102.13156343 -.00000303  00000+0 -13615-3 0  9997
2 17589  70.9163 255.7234 0022664 163.7915 196.3937 14.13040130 15043
SL-16 R/B               
1 17590U 87027B   26102.29045869 -.00000201  00000+0 -76008-4 0  9999
2 17590  71.0036 205.6872 0002968  55.1488 304.9915 14.17170037 20102
SL-14 R/B               
1 17912U 87038B   26102.18105747  .00000342  00000+0  36720-4 0  9990
2 17912  82.4985 265.2465 0020477  56.5796 303.7374 14.85402122 84206
COSMOS 1844             
1 17973U 87041A   26102.06025987 -.00000012  00000+0  18853-4 0  9997
2 17973  70.9008 323.7912 0032124 328.7293  31.1917 14.14564988  8309
SL-14 R/B               
1 18153U 87055B   26102.01731834  .00000301  00000+0  31840-4 0  9994
2 18153  82.4982 317.6206 0019109 263.0331  96.8711 14.85661602 74884
COSMOS 1867             
1 18187U 87060A   26102.32405846 -.00000070  00000+0  11529-4 0  9998
2 18187  65.0109 212.5090 0015111 280.4911  79.4471 14.31508492 24758
SL-14 R/B               
1 18749U 88001B   26102.14970074  .00000284  00000+0  29889-4 0  9992
2 18749  82.5146 163.8993 0019379 125.1703 235.1332 14.85563596 46993
COSMOS 1933             
1 18958U 88020A   26102.27323714  .00003094  00000+0  14933-3 0  9997
2 18958  82.5140 217.6778 0005548  87.2069 272.9800 15.18316048 55325
SL-3 R/B                
1 19046U 88032B   26102.23862726  .00003499  00000+0  16278-3 0  9999
2 19046  97.5226  85.3899 0027542 115.4125 244.9965 15.20289657 57202
SL-16 R/B               
1 19120U 88039B   26102.09769962  .00000155  00000+0  96072-4 0  9998
2 19120  71.0173 357.9080 0023986 286.9250  72.9245 14.19622008963129
COSMOS 1953             
1 19210U 88050A   26102.33392924  .00005151  00000+0  18115-3 0  9990
2 19210  82.5057 124.3914 0011028  16.1808 343.9782 15.29062055 42920
