[{"OBJECT_NAME":"SL-14 R/B","OBJECT_ID":"1986-006B","EPOCH":"2026-04-12T07:18:14.921568","MEAN_MOTION":14.86876206,"ECCENTRICITY":0.00770136,"INCLINATION":82.5276,"RA_OF_ASC_NODE":228.0974,"ARG_OF_PERICENTER":160.2366,"MEAN_ANOMALY":200.1865,"EPHEMERIS_TYPE":0,"CLASSIFICATION_TYPE":"U","NORAD_CAT_ID":16496,"ELEMENT_SET_NO":999,"REV_AT_EPOCH":15420,"BSTAR":6.6714184e-5,"MEAN_MOTION_DOT":6.56e-6,"MEAN_MOTION_DDOT":0},{"OBJECT_NAME":"COSMOS 1743","OBJECT_ID":"1986-034A","EPOCH":"2026-04-11T20:51:50.868000","MEAN_MOTION":15.6163403,"ECCENTRICITY":0.00066504,"INCLINATION":82.5305,"RA_OF_ASC_NODE":38.9322,"ARG_OF_PERICENTER":136.1873,"MEAN_ANOMALY":223.9913,"EPHEMERIS_TYPE":0,"CLASSIFICATION_TYPE":"U","NORAD_CAT_ID":16719,"ELEMENT_SET_NO":999,"REV_AT_EPOCH":18542,"BSTAR":0.00040816243,"MEAN_MOTION_DOT":0.00035244,"MEAN_MOTION_DDOT":0},{"OBJECT_NAME":"SL-14 R/B","OBJECT_ID":"1986-046B","EPOCH":"2026-04-12T06:46:40.940256","MEAN_MOTION":14.85625691,"ECCENTRICITY":0.00245196,"INCLINATION":82.4829,"RA_OF_ASC_NODE":48.4374,"ARG_OF_PERICENTER":115.3193,"MEAN_ANOMALY":245.0567,"EPHEMERIS_TYPE":0,"CLASSIFICATION_TYPE":"U","NORAD_CAT_ID":16792,"ELEMENT_SET_NO":999,"REV_AT_EPOCH":13139,"BSTAR":3.8384504e-5,"MEAN_MOTION_DOT":3.59e-6,"MEAN_MOTION_DDOT":0},{"OBJECT_NAME":"SL-14 R/B","OBJECT_ID":"1986-055B","EPOCH":"2026-04-11T22:22:44.073120","MEAN_MOTION":14.85674288,"ECCENTRICITY":0.0017847,"INCLINATION":82.5169,"RA_OF_ASC_NODE":95.4172,"ARG_OF_PERICENTER":218.3953,"MEAN_ANOMALY":162.4245,"EPHEMERIS_TYPE":0,"CLASSIFICATION_TYPE":"U","NORAD_CAT_ID":16882,"ELEMENT_SET_NO":999,"REV_AT_EPOCH":12430,"BSTAR":3.9273e-5,"MEAN_MOTION_DOT":3.65e-6,"MEAN_MOTION_DDOT":0},{"OBJECT_NAME":"AJISAI (EGS)","OBJECT_ID":"1986-061A","EPOCH":"2026-04-12T06:59:11.232672","MEAN_MOTION":12.44515753,"ECCENTRICITY":0.00113901,"INCLINATION":50.0119,"RA_OF_ASC_NODE":350.0257,"ARG_OF_PERICENTER":13.4462,"MEAN_ANOMALY":88.6504,"EPHEMERIS_TYPE":0,"CLASSIFICATION_TYPE":"U","NORAD_CAT_ID":16908,"ELEMENT_SET_NO":999,"REV_AT_EPOCH":47218,"BSTAR":7.8862895e-5,"MEAN_MOTION_DOT":-8.6e-7,"MEAN_MOTION_DDOT":0},{"OBJECT_NAME":"SL-14 R/B","OBJECT_ID":"1987-024B","EPOCH":"2026-04-12T07:17:10.348800","MEAN_MOTION":14.86166665,"ECCENTRICITY":0.00190937,"INCLINATION":82.5276,"RA_OF_ASC_NODE":61.1636,"ARG_OF_PERICENTER":145.2964,"MEAN_ANOMALY":214.9503,"EPHEMERIS_TYPE":0,"CLASSIFICATION_TYPE":"U","NORAD_CAT_ID":17567,"ELEMENT_SET_NO":999,"REV_AT_EPOCH":9312,"BSTAR":3.8492186e-5,"MEAN_MOTION_DOT":3.63e-6,"MEAN_MOTION_DDOT":0},{"OBJECT_NAME":"COSMOS 1833","OBJECT_ID":"1987-027A","EPOCH":"2026-04-12T03:09:27.080352","MEAN_MOTION":14.1304013,"ECCENTRICITY":0.00226645,"INCLINATION":70.9163,"RA_OF_ASC_NODE":255.7234,"ARG_OF_PERICENTER":163.7915,"MEAN_ANOMALY":196.3937,"EPHEMERIS_TYPE":0,"CLASSIFICATION_TYPE":"U","NORAD_CAT_ID":17589,"ELEMENT_SET_NO":999,"REV_AT_EPOCH":1504,"BSTAR":-0.00013615183,"MEAN_MOTION_DOT":-3.03e-6,"MEAN_MOTION_DDOT":0},{"OBJECT_NAME":"SL-16 R/B","OBJECT_ID":"1987-027B","EPOCH":"2026-04-12T06:58:15.630816","MEAN_MOTION":14.17170037,"ECCENTRICITY":0.00029684,"INCLINATION":71.0036,"RA_OF_ASC_NODE":205.6872,"ARG_OF_PERICENTER":55.1488,"MEAN_ANOMALY":304.9915,"EPHEMERIS_TYPE":0,"CLASSIFICATION_TYPE":"U","NORAD_CAT_ID":17590,"ELEMENT_SET_NO":999,"REV_AT_EPOCH":2010,"BSTAR":-7.6007568e-5,"MEAN_MOTION_DOT":-2.01e-6,"MEAN_MOTION_DDOT":0},{"OBJECT_NAME":"SL-14 R/B","OBJECT_ID":"1987-038B","EPOCH":"2026-04-12T04:20:43.365408","MEAN_MOTION":14.85402122,"ECCENTRICITY":0.00204775,"INCLINATION":82.4985,"RA_OF_ASC_NODE":265.2465,"ARG_OF_PERICENTER":56.5796,"MEAN_ANOMALY":303.7374,"EPHEMERIS_TYPE":0,"CLASSIFICATION_TYPE":"U","NORAD_CAT_ID":17912,"ELEMENT_SET_NO":999,"REV_AT_EPOCH":8420,"BSTAR":3.6719581e-5,"MEAN_MOTION_DOT":3.42e-6,"MEAN_MOTION_DDOT":0},{"OBJECT_NAME":"COSMOS 1844","OBJECT_ID":"1987-041A","EPOCH":"2026-04-12T01:26:46.452768","MEAN_MOTION":14.14564988,"ECCENTRICITY":0.00321248,"INCLINATION":70.9008,"RA_OF_ASC_NODE":323.7912,"ARG_OF_PERICENTER":328.7293,"MEAN_ANOMALY":31.1917,"EPHEMERIS_TYPE":0,"CLASSIFICATION_TYPE":"U","NORAD_CAT_ID":17973,"ELEMENT_SET_NO":999,"REV_AT_EPOCH":830,"BSTAR":1.8853401e-5,"MEAN_MOTION_DOT":-1.2e-7,"MEAN_MOTION_DDOT":0},{"OBJECT_NAME":"SL-14 R/B","OBJECT_ID":"1987-055B","EPOCH":"2026-04-12T00:24:56.304576","MEAN_MOTION":14.85661602,"ECCENTRICITY":0.0019109,"INCLINATION":82.4982,"RA_OF_ASC_NODE":317.6206,"ARG_OF_PERICENTER":263.0331,"MEAN_ANOMALY":96.8711,"EPHEMERIS_TYPE":0,"CLASSIFICATION_TYPE":"U","NORAD_CAT_ID":18153,"ELEMENT_SET_NO":999,"REV_AT_EPOCH":7488,"BSTAR":3.1839515e-5,"MEAN_MOTION_DOT":3.01e-6,"MEAN_MOTION_DDOT":0},{"OBJECT_NAME":"COSMOS 1867","OBJECT_ID":"1987-060A","EPOCH":"2026-04-12T07:46:38.650944","MEAN_MOTION":14.31508492,"ECCENTRICITY":0.0015111,"INCLINATION":65.0109,"RA_OF_ASC_NODE":212.509,"ARG_OF_PERICENTER":280.4911,"MEAN_ANOMALY":79.4471,"EPHEMERIS_TYPE":0,"CLASSIFICATION_TYPE":"U","NORAD_CAT_ID":18187,"ELEMENT_SET_NO":999,"REV_AT_EPOCH":2475,"BSTAR":1.1528673e-5,"MEAN_MOTION_DOT":-7.0e-7,"MEAN_MOTION_DDOT":0},{"OBJECT_NAME":"SL-14 R/B","OBJECT_ID":"1988-001B","EPOCH":"2026-04-12T03:35:34.143936","MEAN_MOTION":14.85563596,"ECCENTRICITY":0.00193795,"INCLINATION":82.5146,"RA_OF_ASC_NODE":163.8993,"ARG_OF_PERICENTER":125.1703,"MEAN_ANOMALY":235.1332,"EPHEMERIS_TYPE":0,"CLASSIFICATION_TYPE":"U","NORAD_CAT_ID":18749,"ELEMENT_SET_NO":999,"REV_AT_EPOCH":4699,"BSTAR":2.9889081e-5,"MEAN_MOTION_DOT":2.84e-6,"MEAN_MOTION_DDOT":0},{"OBJECT_NAME":"COSMOS 1933","OBJECT_ID":"1988-020A","EPOCH":"2026-04-12T06:33:27.688896","MEAN_MOTION":15.18316048,"ECCENTRICITY":0.00055489,"INCLINATION":82.514,"RA_OF_ASC_NODE":217.6778,"ARG_OF_PERICENTER":87.2069,"MEAN_ANOMALY":272.98,"EPHEMERIS_TYPE":0,"CLASSIFICATION_TYPE":"U","NORAD_CAT_ID":18958,"ELEMENT_SET_NO":999,"REV_AT_EPOCH":5532,"BSTAR":0.00014932702,"MEAN_MOTION_DOT":3.094e-5,"MEAN_MOTION_DDOT":0},{"OBJECT_NAME":"SL-3 R/B","OBJECT_ID":"1988-032B","EPOCH":"2026-04-12T05:43:37.395264","MEAN_MOTION":15.20289657,"ECCENTRICITY":0.00275421,"INCLINATION":97.5226,"RA_OF_ASC_NODE":85.3899,"ARG_OF_PERICENTER":115.4125,"MEAN_ANOMALY":244.9965,"EPHEMERIS_TYPE":0,"CLASSIFICATION_TYPE":"U","NORAD_CAT_ID":19046,"ELEMENT_SET_NO":999,"REV_AT_EPOCH":5720,"BSTAR":0.00016277942,"MEAN_MOTION_DOT":3.499e-5,"MEAN_MOTION_DDOT":0},{"OBJECT_NAME":"SL-16 R/B","OBJECT_ID":"1988-039B","EPOCH":"2026-04-12T02:20:41.247168","MEAN_MOTION":14.19622008,"ECCENTRICITY":0.0023986,"INCLINATION":71.0173,"RA_OF_ASC_NODE":357.908,"ARG_OF_PERICENTER":286.925,"MEAN_ANOMALY":72.9245,"EPHEMERIS_TYPE":0,"CLASSIFICATION_TYPE":"U","NORAD_CAT_ID":19120,"ELEMENT_SET_NO":999,"REV_AT_EPOCH":96312,"BSTAR":9.6071844e-5,"MEAN_MOTION_DOT":1.55e-6,"MEAN_MOTION_DDOT":0},{"OBJECT_NAME":"COSMOS 1953","OBJECT_ID":"1988-050A","EPOCH":"2026-04-12T08:00:51.486336","MEAN_MOTION":15.29062055,"ECCENTRICITY":0.00110288,"INCLINATION":82.5057,"RA_OF_ASC_NODE":124.3914,"ARG_OF_PERICENTER":16.1808,"MEAN_ANOMALY":343.9782,"EPHEMERIS_TYPE":0,"CLASSIFICATION_TYPE":"U","NORAD_CAT_ID":19210,"ELEMENT_SET_NO":999,"REV_AT_EPOCH":4292,"BSTAR":0.00018114761,"MEAN_MOTION_DOT":5.151e-5,"MEAN_MOTION_DDOT":0}]
